{
  "type": "FeatureCollection",
  "features": [
    {
      "type": "Feature",
      "properties": {
        "norad_id": 34010,
        "name": "COSMOS 2251 DEB",
        "group": "cosmos-2251-debris",
        "lat": -15.759697723808628,
        "lon": -79.3478735960918,
        "alt_km": 514.6439950764307,
        "timestamp": "2025-12-11T18:59:46.468652+00:00",
        "meta_object_name": "COSMOS 2251 DEB",
        "meta_object_id": "1993-036GV",
        "meta_epoch": "2025-12-11T06:25:03.078336",
        "meta_mean_motion": 15.18254208,
        "meta_eccentricity": 0.00048872,
        "meta_inclination": 73.9973,
        "meta_ra_of_asc_node": 286.3957,
        "meta_arg_of_pericenter": 67.8921,
        "meta_mean_anomaly": 292.2794,
        "meta_ephemeris_type": 0,
        "meta_classification_type": "U",
        "meta_norad_cat_id": 34010,
        "meta_element_set_no": 999,
        "meta_rev_at_epoch": 89263,
        "meta_bstar": 0.0084689241,
        "meta_mean_motion_dot": 0.00177852,
        "meta_mean_motion_ddot": 0,
        "tle_line1": "1 34010U 93036GV  25345.26739674  .00177852  00000+0  84689-2 0  9998",
        "tle_line2": "2 34010  73.9973 286.3957 0004887  67.8921 292.2794 15.18254208892637"
      },
      "geometry": {
        "type": "Point",
        "coordinates": [
          -79.3478735960918,
          -15.759697723808628
        ]
      }
    },
    {
      "type": "Feature",
      "properties": {
        "norad_id": 34011,
        "name": "COSMOS 2251 DEB",
        "group": "cosmos-2251-debris",
        "lat": 17.76025132256567,
        "lon": -22.822597122344465,
        "alt_km": 732.5341350995686,
        "timestamp": "2025-12-11T18:59:46.468662+00:00",
        "meta_object_name": "COSMOS 2251 DEB",
        "meta_object_id": "1993-036GW",
        "meta_epoch": "2025-12-11T00:35:34.038528",
        "meta_mean_motion": 14.41756093,
        "meta_eccentricity": 0.00354871,
        "meta_inclination": 74.0156,
        "meta_ra_of_asc_node": 333.3318,
        "meta_arg_of_pericenter": 57.3936,
        "meta_mean_anomaly": 303.0637,
        "meta_ephemeris_type": 0,
        "meta_classification_type": "U",
        "meta_norad_cat_id": 34011,
        "meta_element_set_no": 999,
        "meta_rev_at_epoch": 87891,
        "meta_bstar": 0.0011787077,
        "meta_mean_motion_dot": 3.852e-05,
        "meta_mean_motion_ddot": 0,
        "tle_line1": "1 34011U 93036GW  25345.02469952  .00003852  00000+0  11787-2 0  9999",
        "tle_line2": "2 34011  74.0156 333.3318 0035487  57.3936 303.0637 14.41756093878913"
      },
      "geometry": {
        "type": "Point",
        "coordinates": [
          -22.822597122344465,
          17.76025132256567
        ]
      }
    },
    {
      "type": "Feature",
      "properties": {
        "norad_id": 34014,
        "name": "COSMOS 2251 DEB",
        "group": "cosmos-2251-debris",
        "lat": -28.118330888044845,
        "lon": 111.38494610496491,
        "alt_km": 678.290467101584,
        "timestamp": "2025-12-11T18:59:46.468672+00:00",
        "meta_object_name": "COSMOS 2251 DEB",
        "meta_object_id": "1993-036GZ",
        "meta_epoch": "2025-12-11T07:12:19.013184",
        "meta_mean_motion": 14.73111249,
        "meta_eccentricity": 0.00369313,
        "meta_inclination": 74.0172,
        "meta_ra_of_asc_node": 283.5331,
        "meta_arg_of_pericenter": 63.5631,
        "meta_mean_anomaly": 61.1183,
        "meta_ephemeris_type": 0,
        "meta_classification_type": "U",
        "meta_norad_cat_id": 34014,
        "meta_element_set_no": 999,
        "meta_rev_at_epoch": 89282,
        "meta_bstar": 0.0018729292,
        "meta_mean_motion_dot": 0.00012182,
        "meta_mean_motion_ddot": 0,
        "tle_line1": "1 34014U 93036GZ  25345.30022006  .00012182  00000+0  18729-2 0  9997",
        "tle_line2": "2 34014  74.0172 283.5331 0036931  63.5631  61.1183 14.73111249892828"
      },
      "geometry": {
        "type": "Point",
        "coordinates": [
          111.38494610496491,
          -28.118330888044845
        ]
      }
    },
    {
      "type": "Feature",
      "properties": {
        "norad_id": 34015,
        "name": "COSMOS 2251 DEB",
        "group": "cosmos-2251-debris",
        "lat": 8.986775722881585,
        "lon": 163.83281486910585,
        "alt_km": 699.2203547592726,
        "timestamp": "2025-12-11T18:59:46.468683+00:00",
        "meta_object_name": "COSMOS 2251 DEB",
        "meta_object_id": "1993-036HA",
        "meta_epoch": "2025-12-11T04:42:28.153152",
        "meta_mean_motion": 14.60213454,
        "meta_eccentricity": 0.0021047,
        "meta_inclination": 74.0236,
        "meta_ra_of_asc_node": 162.3728,
        "meta_arg_of_pericenter": 259.4381,
        "meta_mean_anomaly": 221.4523,
        "meta_ephemeris_type": 0,
        "meta_classification_type": "U",
        "meta_norad_cat_id": 34015,
        "meta_element_set_no": 999,
        "meta_rev_at_epoch": 88508,
        "meta_bstar": 0.002190278,
        "meta_mean_motion_dot": 0.0001058,
        "meta_mean_motion_ddot": 0,
        "tle_line1": "1 34015U 93036HA  25345.19615918  .00010580  00000+0  21903-2 0  9993",
        "tle_line2": "2 34015  74.0236 162.3728 0021047 259.4381 221.4523 14.60213454885080"
      },
      "geometry": {
        "type": "Point",
        "coordinates": [
          163.83281486910585,
          8.986775722881585
        ]
      }
    },
    {
      "type": "Feature",
      "properties": {
        "norad_id": 34018,
        "name": "COSMOS 2251 DEB",
        "group": "cosmos-2251-debris",
        "lat": 55.11721594853471,
        "lon": 118.21478722609965,
        "alt_km": 887.1349860003884,
        "timestamp": "2025-12-11T18:59:46.468694+00:00",
        "meta_object_name": "COSMOS 2251 DEB",
        "meta_object_id": "1993-036HD",
        "meta_epoch": "2025-12-10T09:59:13.385760",
        "meta_mean_motion": 13.81067032,
        "meta_eccentricity": 0.02638984,
        "meta_inclination": 73.8775,
        "meta_ra_of_asc_node": 96.0331,
        "meta_arg_of_pericenter": 132.3579,
        "meta_mean_anomaly": 293.5719,
        "meta_ephemeris_type": 0,
        "meta_classification_type": "U",
        "meta_norad_cat_id": 34018,
        "meta_element_set_no": 999,
        "meta_rev_at_epoch": 84625,
        "meta_bstar": 0.00084036111,
        "meta_mean_motion_dot": 1.135e-05,
        "meta_mean_motion_ddot": 0,
        "tle_line1": "1 34018U 93036HD  25344.41612715  .00001135  00000+0  84036-3 0  9995",
        "tle_line2": "2 34018  73.8775  96.0331 0263898 132.3579 293.5719 13.81067032846255"
      },
      "geometry": {
        "type": "Point",
        "coordinates": [
          118.21478722609965,
          55.11721594853471
        ]
      }
    },
    {
      "type": "Feature",
      "properties": {
        "norad_id": 34019,
        "name": "COSMOS 2251 DEB",
        "group": "cosmos-2251-debris",
        "lat": 6.511069717191628,
        "lon": 54.366158953050316,
        "alt_km": 810.8371064396315,
        "timestamp": "2025-12-11T18:59:46.468704+00:00",
        "meta_object_name": "COSMOS 2251 DEB",
        "meta_object_id": "1993-036HE",
        "meta_epoch": "2025-12-11T05:49:55.803072",
        "meta_mean_motion": 14.33925838,
        "meta_eccentricity": 0.00627125,
        "meta_inclination": 73.9545,
        "meta_ra_of_asc_node": 53.4921,
        "meta_arg_of_pericenter": 234.9566,
        "meta_mean_anomaly": 181.0856,
        "meta_ephemeris_type": 0,
        "meta_classification_type": "U",
        "meta_norad_cat_id": 34019,
        "meta_element_set_no": 999,
        "meta_rev_at_epoch": 87499,
        "meta_bstar": 0.0013912453,
        "meta_mean_motion_dot": 3.94e-05,
        "meta_mean_motion_ddot": 0,
        "tle_line1": "1 34019U 93036HE  25345.24300698  .00003940  00000+0  13912-2 0  9992",
        "tle_line2": "2 34019  73.9545  53.4921 0062712 234.9566 181.0856 14.33925838874991"
      },
      "geometry": {
        "type": "Point",
        "coordinates": [
          54.366158953050316,
          6.511069717191628
        ]
      }
    },
    {
      "type": "Feature",
      "properties": {
        "norad_id": 34021,
        "name": "COSMOS 2251 DEB",
        "group": "cosmos-2251-debris",
        "lat": 48.39477064157953,
        "lon": 150.41498909210836,
        "alt_km": 731.71756272949,
        "timestamp": "2025-12-11T18:59:46.468715+00:00",
        "meta_object_name": "COSMOS 2251 DEB",
        "meta_object_id": "1993-036HG",
        "meta_epoch": "2025-12-10T16:20:06.831168",
        "meta_mean_motion": 14.49935622,
        "meta_eccentricity": 0.00208864,
        "meta_inclination": 74.0358,
        "meta_ra_of_asc_node": 133.6943,
        "meta_arg_of_pericenter": 277.9392,
        "meta_mean_anomaly": 96.853,
        "meta_ephemeris_type": 0,
        "meta_classification_type": "U",
        "meta_norad_cat_id": 34021,
        "meta_element_set_no": 999,
        "meta_rev_at_epoch": 88600,
        "meta_bstar": 0.00080466195,
        "meta_mean_motion_dot": 3.094e-05,
        "meta_mean_motion_ddot": 0,
        "tle_line1": "1 34021U 93036HG  25344.68063462  .00003094  00000+0  80466-3 0  9996",
        "tle_line2": "2 34021  74.0358 133.6943 0020886 277.9392  96.8530 14.49935622886009"
      },
      "geometry": {
        "type": "Point",
        "coordinates": [
          150.41498909210836,
          48.39477064157953
        ]
      }
    }
  ]
}